UNKNOWN                 
1 82875U          25262.68338521  .00000325  00000+0  97442-4 0  9992
2 82875  98.6672 248.1580 0379261 164.0181 197.3356 14.14883864532581
UNKNOWN                 
1 82893U          25262.25481700  .00006309  00000+0  24812-2 0  9990
2 82893  98.9622  14.7850 0024456 282.9083  76.9366 14.29438712411897
UNKNOWN                 
1 82912U          25259.62215845  .00001502  00000+0  64893-3 0  9998
2 82912  65.8376  14.8925 0779323 308.2274  45.1033 13.26694933567768
UNKNOWN                 
1 82961U          25255.19119840  .00009330  00000+0  14550-1 0  9998
2 82961  99.9085  54.2665 0420292 220.5340 136.3767 13.20533074543611
UNKNOWN                 
1 82965U          25260.16184389  .00000923  00000+0  13069-2 0  9999
2 82965 100.1208 336.8923 0001852 150.8376 209.2865 13.59740814512680
UNKNOWN                 
1 83903U          25262.59992509 -.00000198  00000+0  00000+0 0  9995
2 83903   6.3954 291.3439 0125559 248.4014 128.5468  0.99111795 42836
UNKNOWN                 
1 83934U          25262.73399567 -.00000228  00000+0  00000+0 0  9994
2 83934   5.9759 298.0470 0234030 268.4704 104.7076  1.02663653 44428
UNKNOWN                 
1 84006U          25262.94995041 -.00000129  00000+0  00000+0 0  9997
2 84006  22.6140 194.3555 6119011  31.6285 353.5862  2.16231376 82419
UNKNOWN                 
1 84188U          25262.13780378  .00010401  00000+0  18942-1 0  9993
2 84188  64.8932 325.7044 3853627  28.1595 348.2466  7.20271738 35099
UNKNOWN                 
1 84292U          25261.15236913  .00004625  00000+0  24466-2 0  9991
2 84292  23.8358 278.9065 4574952  33.8077 348.4336  6.20615264222747
UNKNOWN                 
1 84407U          25255.57438424 -.00000168  00000+0  16425-1 0  9993
2 84407  19.5725 349.3225 7202856  12.8638 358.4884  2.05743061 73996
UNKNOWN                 
1 84575U          25262.26619201 -.00000489  00000+0 -14928-1 0  9990
2 84575  18.1045 186.3274 7113943 331.1390   3.5640  2.19893215 63602
UNKNOWN                 
1 84932U          25262.88938971  .00000794  00000+0  77750-2 0  9993
2 84932   2.3298 291.5371 6560293 323.1579 168.3093  2.99769527129267
UNKNOWN                 
1 85001U          25248.15486111 -.00000419  00000+0  00000+0 0  9995
2 85001  28.5167  22.1078 6968193 127.6048  38.5859  2.69831137    14
UNKNOWN                 
1 85004U          25262.18482716  .00001171  00000+0  37447-3 0  9998
2 85004  98.4089 234.5531 0048695  57.4362 318.9826 14.40738829618726
UNKNOWN                 
1 85010U          25260.10649495  .00000829  00000+0  91412-3 0  9995
2 85010  99.2588 124.6647 0025861 116.1797  36.2795 13.74779082592018
UNKNOWN                 
1 85015U          25263.09733410  .00000582  00000+0  12164-3 0  9995
2 85015  74.0489 198.2433 0014199 129.2407 231.0022 14.62127861630380
UNKNOWN                 
1 85023U          25262.94475534  .00020954  00000+0  36764-2 0  9993
2 85023  99.8546 261.0234 0003315 119.6923 270.3359 14.67751835616517
UNKNOWN                 
1 85027U          25261.50376861  .00000147  00000+0  21257-3 0  9995
2 85027  66.0417 310.2362 0183984 234.8395 123.5315 13.74191996592907
UNKNOWN                 
1 85047U          25262.80190671  .00009587  00000+0  17093-1 0  9992
2 85047 102.3023 210.5479 0079758 216.4066 143.1613 13.41056368565390
UNKNOWN                 
1 85061U          25262.43619613  .00002765  00000+0  10831-1 0  9993
2 85061 102.3855 238.6144 0299124 356.8551 154.0648 12.76239477545026
UNKNOWN                 
1 85100U          25263.06834088  .00000382  00000+0  12808-3 0  9993
2 85100  74.0481  17.4590 0013519 267.4379 269.8646 14.40599850621299
UNKNOWN                 
1 85106U          25263.05951271  .00000489  00000+0  58493-3 0  9990
2 85106 100.0551 359.8227 0009807 220.8774 318.3410 13.72737977591585
UNKNOWN                 
1 85151U          25261.42247043  .00013104  00000+0  20150-2 0  9990
2 85151  98.4109 122.0520 0011910  50.3523 309.8732 14.73600556466943
UNKNOWN                 
1 85210U          25258.65277347  .00000665  00000+0  66897-3 0  9994
2 85210  99.8496  37.2899 0218252 179.6863 197.1294 13.71336486590088
UNKNOWN                 
1 85217U          25260.22856711  .00001420  00000+0  38815-3 0  9994
2 85217  98.0295   0.3367 0210477  29.9965 331.3087 14.36428253615430
UNKNOWN                 
1 85237U          25261.48833070  .00004335  00000+0  96156-3 0  9998
2 85237  65.5333  78.3293 0511866  67.0684 298.3558 13.99527308596414
UNKNOWN                 
1 85238U          25262.60754082  .00000032  00000+0  61160-4 0  9997
2 85238  99.0490 194.2464 0064347  68.4808 105.9233 13.88317964599160
UNKNOWN                 
1 85246U          25262.77638413  .00000828  00000+0  31052-3 0  9992
2 85246  97.9901 274.1735 0224093 191.2038 168.4106 14.21092669611144
UNKNOWN                 
1 85373U          25257.33570176  .00001340  00000+0  94832-3 0  9995
2 85373 100.4309 281.1015 0047959 115.3747 256.7403 13.99428582599624
UNKNOWN                 
1 87014U          25261.37452285  .00002385  00000+0  37179-2 0  9998
2 87014 100.4988 220.9201 0052851  75.8234  78.3446 13.51251379579389
UNKNOWN                 
1 87029U          25245.07212326  .00001457  00000+0  91630-3 0  9995
2 87029  98.7698 283.8894 0083094 174.3229 185.8900 14.04181410578734
UNKNOWN                 
1 87042U          25262.41018156  .00000829  00000+0  51859-3 0  9993
2 87042  98.7257 308.6256 0042421 334.0776  25.8267 14.06896257542104
UNKNOWN                 
1 87051U          25262.24764729  .00002442  00000+0  83237-3 0  9996
2 87051  65.7263  95.6846 0724607 179.8068 180.3408 13.45176107577216
UNKNOWN                 
1 87054U          25262.90159868  .00001879  00000+0  10845-2 0  9991
2 87054 100.0976 132.0688 0011828 213.6839 146.3577 14.10531409604505
UNKNOWN                 
1 87071U          25263.12558183  .00002512  00000+0  92018-3 0  9996
2 87071  61.2176 160.0730 0491358 195.8188 162.7011 13.84153400590905
UNKNOWN                 
1 87113U          25260.24070533  .00324143  00000+0  45087-2 0  9991
2 87113  65.6139 340.8120 0073299 252.2446 107.0695 15.52592065622610
UNKNOWN                 
1 87129U          25262.72779279  .00000126  00000+0  12437-2 0  9991
2 87129 102.2646 352.6912 0032857 235.1598 124.6374 12.42767413536239
UNKNOWN                 
1 87159U          25261.72280619  .00001326  00000+0  15460-2 0  9990
2 87159  90.3418  66.3399 0107672 149.1937 211.5602 13.65766745545089
UNKNOWN                 
1 87163U          25262.58817077  .00003787  00000+0  11663-2 0  9998
2 87163  65.6006  83.7372 0644757 102.4643 264.9292 13.63204884566047
UNKNOWN                 
1 87164U          25263.13966953  .00004384  00000+0  93297-3 0  9997
2 87164  65.2036 210.2784 0097156  95.2845 265.9348 14.57182002623586
UNKNOWN                 
1 87204U          25258.06865657  .00001532  00000+0  61936-3 0  9994
2 87204  98.5464 120.6819 0044589 224.8160 134.9417 14.28722508612770
UNKNOWN                 
1 87211U          25253.24355463  .00003417  00000+0  96673-3 0  9996
2 87211  99.0821 246.4509 0056123  77.3326 301.1633 14.45382692694263
UNKNOWN                 
1 87214U          25261.44287583  .00001707  00000+0  15564-2 0  9996
2 87214 100.3251 251.7762 0074178 109.8048 251.1120 13.83706394588448
UNKNOWN                 
1 87237U          25261.12085953  .00000242  00000+0  21623-3 0  9990
2 87237  99.2691 316.7444 0104261 155.3866 234.6096 13.91645684599855
UNKNOWN                 
1 87239U          25261.14719180  .00005817  00000+0  15074-2 0  9995
2 87239  82.8764 155.4022 0021518 321.6918  38.2749 14.49558707615467
UNKNOWN                 
1 87245U          25263.03603150  .00002972  00000+0  62250-3 0  9999
2 87245  65.6458 271.4274 0441089 163.0001 233.2532 14.14523349602369
UNKNOWN                 
1 87271U          25262.65262021  .00009403  00000+0  17674-2 0  9998
2 87271  65.7545 102.0389 0427426 118.2347 246.2580 14.19811830600428
UNKNOWN                 
1 87280U          25262.80069706  .00000247  00000+0  50523-3 0  9998
2 87280  64.6143  82.9595 0129057 276.8491  81.7879 13.48436922522539
UNKNOWN                 
1 87293U          25263.03599483  .00003667  00000+0  78218-3 0  9998
2 87293  65.9020   7.3360 0425090  45.4912 318.0093 14.16165563602131
UNKNOWN                 
1 87300U          25259.19722811  .00001278  00000+0  91770-3 0  9996
2 87300 100.0747 232.9461 0028516 163.4193 196.7906 13.98972917600870
UNKNOWN                 
1 87304U          25262.95962129  .00001561  00000+0  23692-3 0  9999
2 87304  74.0167 124.9001 0017379 118.5694 241.7231 14.74925576634123
UNKNOWN                 
1 87320U          25262.77463478  .00000887  00000+0  60014-3 0  9999
2 87320  66.5933 284.4684 0414256 109.3808 255.2518 13.69627471582246
UNKNOWN                 
1 87334U          25262.97470872  .00013935  00000+0  89372-2 0  9997
2 87334  90.0094 271.6622 0072826 144.1503 216.4597 14.01862107374893
UNKNOWN                 
1 87335U          25262.51847898  .00014674  00000+0  92137-2 0  9998
2 87335  89.9947 268.1074 0091209 122.6191 238.3834 14.02296548375158
UNKNOWN                 
1 87405U          25261.63982510  .00001735  00000+0  12441-2 0  9993
2 87405  82.7491 127.2223 0057015 215.1322 144.6081 13.95771499599282
UNKNOWN                 
1 87426U          25262.60421794  .00004849  00000+0  19272-2 0  9994
2 87426  65.7838 202.4255 0064818 328.8742 211.9852 14.28409648610569
UNKNOWN                 
1 87448U          25260.37735996  .00001176  00000+0  97697-3 0  9990
2 87448 100.4606  96.2417 0064506  66.6288 294.1634 13.90230903597231
UNKNOWN                 
1 87456U          25259.56868978  .00004795  00000+0  77021-3 0  9994
2 87456  65.7835 321.9872 0510311  50.2060 314.2808 14.11486453599187
